STARLINK-31895          
1 59849U 24097Q   26068.00613128 -.00001596  00000+0 -48490-4 0  9991
2 59849  42.9976 278.1021 0000971 290.4922  69.5825 15.27577588101811
FLOCK 4G-10             
1 62670U 25009BP  26068.70827885  .00013952  00000+0  52624-3 0  9995
2 62670  97.3967 150.5883 0003469 341.4844  18.6269 15.27155944121340
